H1 CPF 01  gfz 2022 08 30 12  7422 terrasarx 
H2 0702601  6201 31698    2022 08 30 12 59 42 2022 09 04 00 00 42   120 1 1  0 0 0
H9
10 0 59824  35982.000000  0   -1370283.563    593049.760  -6731430.849
10 0 59824  36102.000000  0   -1781989.036   1384908.691  -6515138.875
10 0 59824  36222.000000  0   -2149111.124   2159588.883  -6185160.802
10 0 59824  36342.000000  0   -2465690.263   2902810.625  -5747182.645
10 0 59824  36462.000000  0   -2726873.665   3600718.149  -5208767.405
10 0 59824  36582.000000  0   -2928991.498   4240138.030  -4579236.379
10 0 59824  36702.000000  0   -3069610.823   4808831.603  -3869518.257
10 0 59824  36822.000000  0   -3147564.297   5295734.397  -3091967.357
10 0 59824  36942.000000  0   -3162953.601   5691177.756  -2260156.182
10 0 59824  37062.000000  0   -3117128.516   5987090.671  -1388642.899
10 0 59824  37182.000000  0   -3012638.830   6177173.523   -492715.104
10 0 59824  37302.000000  0   -2853162.012   6257037.687    411881.267
10 0 59824  37422.000000  0   -2643409.117   6224311.849   1309225.862
10 0 59824  37542.000000  0   -2389006.025   6078705.510   2183515.930
10 0 59824  37662.000000  0   -2096355.645   5822028.012   3019353.975
10 0 59824  37782.000000  0   -1772486.488   5458165.831   3802025.721
10 0 59824  37902.000000  0   -1424890.990   4993019.087   4517763.950
10 0 59824  38022.000000  0   -1061356.938   4434398.269   5153993.499
10 0 59824  38142.000000  0    -689795.149   3791883.799   5699551.419
10 0 59824  38262.000000  0    -318070.446   3076653.335   6144879.328
10 0 59824  38382.000000  0      46162.424   2301279.185   6482185.643
10 0 59824  38502.000000  0     395614.128   1479502.508   6705575.503
10 0 59824  38622.000000  0     723505.020    625986.247   6811148.357
10 0 59824  38742.000000  0    1023695.111   -243947.160   6797060.641
10 0 59824  38862.000000  0    1290798.051  -1114589.589   6663556.907
10 0 59824  38982.000000  0    1520277.649  -1970130.555   6412966.265
10 0 59824  39102.000000  0    1708525.242  -2794943.976   6049664.917
10 0 59824  39222.000000  0    1852916.779  -3573875.239   5580004.461
10 0 59824  39342.000000  0    1951848.357  -4292522.667   5012205.811
10 0 59824  39462.000000  0    2004750.208  -4937507.358   4356220.851
10 0 59824  39582.000000  0    2012079.856  -5496729.671   3623564.231
10 0 59824  39702.000000  0    1975292.412  -5959605.883   2827112.987
10 0 59824  39822.000000  0    1896787.887  -6317276.781   1980879.414
10 0 59824  39942.000000  0    1779839.539  -6562784.770   1099762.187
10 0 59824  40062.000000  0    1628502.938  -6691216.308    199279.126
10 0 59824  40182.000000  0    1447507.652  -6699805.320   -704713.394
10 0 59824  40302.000000  0    1242134.027  -6587993.133  -1596311.266
10 0 59824  40422.000000  0    1018078.238  -6357439.840  -2459851.263
10 0 59824  40542.000000  0     781310.432  -6011992.484  -3280192.320
10 0 59824  40662.000000  0     537931.293  -5557610.303  -4042984.435
10 0 59824  40782.000000  0     294027.446  -5002249.599  -4734919.865
10 0 59824  40902.000000  0      55530.330  -4355711.594  -5343960.872
10 0 59824  41022.000000  0    -171917.732  -3629458.503  -5859541.860
10 0 59824  41142.000000  0    -383087.677  -2836401.188  -6272742.822
10 0 59824  41262.000000  0    -573275.563  -1990664.113  -6576432.349
10 0 59824  41382.000000  0    -738400.474  -1107332.166  -6765379.308
10 0 59824  41502.000000  0    -875086.807   -202183.971  -6836334.057
10 0 59824  41622.000000  0    -980729.568    708585.561  -6788077.654
10 0 59824  41742.000000  0   -1053542.279   1608647.453  -6621439.743
10 0 59824  41862.000000  0   -1092586.704   2481823.971  -6339285.669
10 0 59824  41982.000000  0   -1097783.854   3312372.706  -5946473.705
10 0 59824  42102.000000  0   -1069906.584   4085267.825  -5449780.813
10 0 59824  42222.000000  0   -1010553.128   4786471.766  -4857796.552
10 0 59824  42342.000000  0    -922102.637   5403194.745  -4180786.157
10 0 59824  42462.000000  0    -807652.950   5924135.869  -3430521.971
10 0 59824  42582.000000  0    -670941.319   6339699.920  -2620086.315
10 0 59824  42702.000000  0    -516249.619   6642186.243  -1763648.499
10 0 59824  42822.000000  0    -348296.385   6825943.839   -876217.815
10 0 59824  42942.000000  0    -172117.487   6887488.295     26621.865
10 0 59824  43062.000000  0       7061.807   6825577.162    928991.632
10 0 59824  43182.000000  0     183959.470   6641240.504   1815005.963
10 0 59824  43302.000000  0     353370.008   6337763.576   2669062.157
10 0 59824  43422.000000  0     510295.394   5920624.162   3476122.159
10 0 59824  43542.000000  0     650070.987   5397388.115   4221982.690
10 0 59824  43662.000000  0     768483.918   4777566.223   4893531.754
10 0 59824  43782.000000  0     861877.981   4072425.804   5478981.271
10 0 59824  43902.000000  0     927246.286   3294776.939   5968068.244
10 0 59824  44022.000000  0     962308.243   2458732.171   6352230.887
10 0 59824  44142.000000  0     965568.145   1579444.029   6624752.804
10 0 59824  44262.000000  0     936355.897    672826.144   6780874.492
10 0 59824  44382.000000  0     874848.853   -244735.895   6817870.264
10 0 59824  44502.000000  0     782074.224  -1156679.255   6735093.775
10 0 59824  44622.000000  0     659891.827  -2046562.878   6533989.396
10 0 59824  44742.000000  0     510957.375  -2898363.766   6218069.091
10 0 59824  44862.000000  0     338666.925  -3696767.634   5792853.970
10 0 59824  44982.000000  0     147084.029  -4427445.068   5265780.946
10 0 59824  45102.000000  0     -59148.762  -5077311.623   4646079.889
10 0 59824  45222.000000  0    -274913.437  -5634770.427   3944619.815
10 0 59824  45342.000000  0    -494734.383  -6089929.885   3173721.529
10 0 59824  45462.000000  0    -712907.041  -6434789.329   2346942.060
10 0 59824  45582.000000  0    -923633.154  -6663388.557   1478834.096
10 0 59824  45702.000000  0   -1121160.841  -6771920.025    584686.329
10 0 59824  45822.000000  0   -1299926.837  -6758797.891   -319754.746
10 0 59824  45942.000000  0   -1454694.278  -6624680.140  -1218571.514
10 0 59824  46062.000000  0   -1580683.713  -6372445.915  -2095963.841
10 0 59824  46182.000000  0   -1673694.692  -6007129.137  -2936533.899
10 0 59824  46302.000000  0   -1730214.966  -5535809.689  -3725561.928
10 0 59824  46422.000000  0   -1747514.073  -4967464.551  -4449266.113
10 0 59824  46542.000000  0   -1723719.023  -4312784.477  -5095040.538
10 0 59824  46662.000000  0   -1657871.217  -3583962.431  -5651668.218
10 0 59824  46782.000000  0   -1549963.516  -2794458.547  -6109507.275
10 0 59824  46902.000000  0   -1400956.731  -1958745.836  -6460647.828
10 0 59824  47022.000000  0   -1212775.737  -1092042.517  -6699036.809
10 0 59824  47142.000000  0    -988286.119   -210036.796  -6820571.595
10 0 59824  47262.000000  0    -731251.179    671392.408  -6823162.524
10 0 59824  47382.000000  0    -446269.289   1536454.033  -6706764.369
10 0 59824  47502.000000  0    -138694.132   2369720.296  -6473376.898
10 0 59824  47622.000000  0     185461.963   3156395.562  -6127015.800
10 0 59824  47742.000000  0     519642.152   3882576.686  -5673651.879
10 0 59824  47862.000000  0     856873.091   4535498.048  -5121117.268
10 0 59824  47982.000000  0    1189904.953   5103759.220  -4478982.128
10 0 59824  48102.000000  0    1511362.225   5577531.809  -3758399.656
10 0 59824  48222.000000  0    1813901.773   5948738.880  -2971920.927
10 0 59824  48342.000000  0    2090374.752   6211204.164  -2133282.810
10 0 59824  48462.000000  0    2333989.163   6360767.290  -1257170.456
10 0 59824  48582.000000  0    2538468.731   6395360.113   -358957.899
10 0 59824  48702.000000  0    2698203.785   6315041.114    545567.125
10 0 59824  48822.000000  0    2808390.140   6121987.132   1440487.623
10 0 59824  48942.000000  0    2865152.344   5820443.083   2310045.454
10 0 59824  49062.000000  0    2865648.451   5416630.306   3138926.983
10 0 59824  49182.000000  0    2808153.793   4918615.493   3912540.220
10 0 59824  49302.000000  0    2692121.430   4336144.511   4617277.771
10 0 59824  49422.000000  0    2518215.449   3680442.207   5240760.554
10 0 59824  49542.000000  0    2288318.474   2963986.362   5772052.185
10 0 59824  49662.000000  0    2005516.257   2200264.189   6201846.040
10 0 59824  49782.000000  0    1674056.824   1403513.348   6522624.285
10 0 59824  49902.000000  0    1299284.951    588451.893   6728783.009
10 0 59824  50022.000000  0     887554.552   -229994.236   6816722.927
10 0 59824  50142.000000  0     446120.670  -1036963.183   6784909.536
10 0 59824  50262.000000  0     -16988.619  -1817927.449   6633898.918
10 0 59824  50382.000000  0    -493118.363  -2558955.243   6366328.254
10 0 59824  50502.000000  0    -973147.885  -3246959.763   5986871.442
10 0 59824  50622.000000  0   -1447662.728  -3869930.726   5502160.780
10 0 59824  50742.000000  0   -1907137.268  -4417146.712   4920678.896
10 0 59824  50862.000000  0   -2342126.511  -4879366.331   4252618.346
10 0 59824  50982.000000  0   -2743462.027  -5248993.171   3509707.860
10 0 59824  51102.000000  0   -3102445.949  -5520208.638   2705006.980
10 0 59824  51222.000000  0   -3411038.622  -5689069.275   1852675.331
10 0 59824  51342.000000  0   -3662036.592  -5753568.173    967720.207
10 0 59824  51462.000000  0   -3849236.453  -5713657.731     65726.289
10 0 59824  51582.000000  0   -3967580.094  -5571233.083   -837426.586
10 0 59824  51702.000000  0   -4013277.442  -5330076.079  -1725852.403
10 0 59824  51822.000000  0   -3983903.141  -4995760.330  -2583947.310
10 0 59824  51942.000000  0   -3878464.860  -4575520.631  -3396670.337
10 0 59824  52062.000000  0   -3697441.556  -4078091.055  -4149810.060
10 0 59824  52182.000000  0   -3442791.904  -3513517.087  -4830232.003
10 0 59824  52302.000000  0   -3117933.494  -2892946.475  -5426103.312
10 0 59824  52422.000000  0   -2727693.620  -2228403.681  -5927090.533
99
